{
  "type": "FeatureCollection",
  "features": [
    {
      "type": "Feature",
      "properties": {
        "norad_id": 66912,
        "name": "1998-067XY",
        "group": "last-30-days",
        "lat": 32.58908306396717,
        "lon": 127.10061258514581,
        "alt_km": 408.4809363775166,
        "timestamp": "2025-12-21T22:41:40.166624+00:00",
        "meta_object_name": "1998-067XY",
        "meta_object_id": "1998-067XY",
        "meta_epoch": "2025-12-21T11:41:25.287072",
        "meta_mean_motion": 15.51934859,
        "meta_eccentricity": 0.0004003,
        "meta_inclination": 51.6317,
        "meta_ra_of_asc_node": 98.9521,
        "meta_arg_of_pericenter": 271.7448,
        "meta_mean_anomaly": 88.3083,
        "meta_ephemeris_type": 0,
        "meta_classification_type": "U",
        "meta_norad_cat_id": 66912,
        "meta_element_set_no": 999,
        "meta_rev_at_epoch": 296,
        "meta_bstar": 0.00071547257,
        "meta_mean_motion_dot": 0.0004353,
        "meta_mean_motion_ddot": 0,
        "tle_line1": "1 66912U 98067XY  25355.48709823  .00043530  00000+0  71547-3 0  9996",
        "tle_line2": "2 66912  51.6317  98.9521 0004003 271.7448  88.3083 15.51934859  2960"
      },
      "geometry": {
        "type": "Point",
        "coordinates": [
          127.10061258514581,
          32.58908306396717
        ]
      }
    },
    {
      "type": "Feature",
      "properties": {
        "norad_id": 66913,
        "name": "2025-284A",
        "group": "last-30-days",
        "lat": 7.538872425611526,
        "lon": -63.09831565813311,
        "alt_km": 541.9369533877007,
        "timestamp": "2025-12-21T22:41:40.166634+00:00",
        "meta_object_name": "2025-284A",
        "meta_object_id": "2025-284A",
        "meta_epoch": "2025-12-20T20:28:02.439264",
        "meta_mean_motion": 15.08853775,
        "meta_eccentricity": 0.0013579,
        "meta_inclination": 80.4037,
        "meta_ra_of_asc_node": 119.5485,
        "meta_arg_of_pericenter": 267.5729,
        "meta_mean_anomaly": 92.3939,
        "meta_ephemeris_type": 0,
        "meta_classification_type": "U",
        "meta_norad_cat_id": 66913,
        "meta_element_set_no": 999,
        "meta_rev_at_epoch": 235,
        "meta_bstar": 0.00015794996,
        "meta_mean_motion_dot": 2.509e-05,
        "meta_mean_motion_ddot": 0,
        "tle_line1": "1 66913U 25284A   25354.85280601  .00002509  00000+0  15795-3 0  9990",
        "tle_line2": "2 66913  80.4037 119.5485 0013579 267.5729  92.3939 15.08853775  2359"
      },
      "geometry": {
        "type": "Point",
        "coordinates": [
          -63.09831565813311,
          7.538872425611526
        ]
      }
    },
    {
      "type": "Feature",
      "properties": {
        "norad_id": 66914,
        "name": "2025-284B",
        "group": "last-30-days",
        "lat": -26.05725274321516,
        "lon": 113.3516155026606,
        "alt_km": 516.8899257426838,
        "timestamp": "2025-12-21T22:41:40.166644+00:00",
        "meta_object_name": "2025-284B",
        "meta_object_id": "2025-284B",
        "meta_epoch": "2025-12-16T06:51:11.417184",
        "meta_mean_motion": 15.18985981,
        "meta_eccentricity": 0.00081793,
        "meta_inclination": 80.4045,
        "meta_ra_of_asc_node": 125.2713,
        "meta_arg_of_pericenter": 234.9626,
        "meta_mean_anomaly": 125.0834,
        "meta_ephemeris_type": 0,
        "meta_classification_type": "U",
        "meta_norad_cat_id": 66914,
        "meta_element_set_no": 999,
        "meta_rev_at_epoch": 166,
        "meta_bstar": 0.00038444995,
        "meta_mean_motion_dot": 8.068e-05,
        "meta_mean_motion_ddot": 0,
        "tle_line1": "1 66914U 25284B   25350.28554881  .00008068  00000+0  38445-3 0  9991",
        "tle_line2": "2 66914  80.4045 125.2713 0008179 234.9626 125.0834 15.18985981  1668"
      },
      "geometry": {
        "type": "Point",
        "coordinates": [
          113.3516155026606,
          -26.05725274321516
        ]
      }
    },
    {
      "type": "Feature",
      "properties": {
        "norad_id": 66915,
        "name": "HULIANWANG DIGUI-105",
        "group": "last-30-days",
        "lat": -41.91955056856726,
        "lon": 30.870006098894578,
        "alt_km": 879.4461617573479,
        "timestamp": "2025-12-21T22:41:40.166654+00:00",
        "meta_object_name": "HULIANWANG DIGUI-105",
        "meta_object_id": "2025-285A",
        "meta_epoch": "2025-12-21T14:26:22.020000",
        "meta_mean_motion": 14.03718326,
        "meta_eccentricity": 0.00080589,
        "meta_inclination": 50.005,
        "meta_ra_of_asc_node": 81.1862,
        "meta_arg_of_pericenter": 312.3162,
        "meta_mean_anomaly": 47.7059,
        "meta_ephemeris_type": 0,
        "meta_classification_type": "U",
        "meta_norad_cat_id": 66915,
        "meta_element_set_no": 999,
        "meta_rev_at_epoch": 215,
        "meta_bstar": 0.00010965483,
        "meta_mean_motion_dot": 2.2e-07,
        "meta_mean_motion_ddot": 0,
        "tle_line1": "1 66915U 25285A   25355.60164375  .00000022  00000+0  10965-3 0  9998",
        "tle_line2": "2 66915  50.0050  81.1862 0008058 312.3162  47.7059 14.03718326  2159"
      },
      "geometry": {
        "type": "Point",
        "coordinates": [
          30.870006098894578,
          -41.91955056856726
        ]
      }
    },
    {
      "type": "Feature",
      "properties": {
        "norad_id": 66916,
        "name": "HULIANWANG DIGUI-106",
        "group": "last-30-days",
        "lat": -33.50404424029366,
        "lon": 46.00078790008404,
        "alt_km": 879.8106725343441,
        "timestamp": "2025-12-21T22:41:40.166664+00:00",
        "meta_object_name": "HULIANWANG DIGUI-106",
        "meta_object_id": "2025-285B",
        "meta_epoch": "2025-12-21T14:22:12.324864",
        "meta_mean_motion": 14.03703258,
        "meta_eccentricity": 0.00068326,
        "meta_inclination": 50.0061,
        "meta_ra_of_asc_node": 81.1726,
        "meta_arg_of_pericenter": 305.5483,
        "meta_mean_anomaly": 54.4784,
        "meta_ephemeris_type": 0,
        "meta_classification_type": "U",
        "meta_norad_cat_id": 66916,
        "meta_element_set_no": 999,
        "meta_rev_at_epoch": 215,
        "meta_bstar": 0.00011365112,
        "meta_mean_motion_dot": 2.8e-07,
        "meta_mean_motion_ddot": 0,
        "tle_line1": "1 66916U 25285B   25355.59875376  .00000028  00000+0  11365-3 0  9998",
        "tle_line2": "2 66916  50.0061  81.1726 0006832 305.5483  54.4784 14.03703258  2157"
      },
      "geometry": {
        "type": "Point",
        "coordinates": [
          46.00078790008404,
          -33.50404424029366
        ]
      }
    },
    {
      "type": "Feature",
      "properties": {
        "norad_id": 66917,
        "name": "HULIANWANG DIGUI-107",
        "group": "last-30-days",
        "lat": -27.414483107278784,
        "lon": 53.92196171748928,
        "alt_km": 879.0627240775866,
        "timestamp": "2025-12-21T22:41:40.166674+00:00",
        "meta_object_name": "HULIANWANG DIGUI-107",
        "meta_object_id": "2025-285C",
        "meta_epoch": "2025-12-21T14:19:34.884192",
        "meta_mean_motion": 14.03663177,
        "meta_eccentricity": 0.00074953,
        "meta_inclination": 50.0026,
        "meta_ra_of_asc_node": 81.1561,
        "meta_arg_of_pericenter": 315.0522,
        "meta_mean_anomaly": 44.9775,
        "meta_ephemeris_type": 0,
        "meta_classification_type": "U",
        "meta_norad_cat_id": 66917,
        "meta_element_set_no": 999,
        "meta_rev_at_epoch": 215,
        "meta_bstar": 9.9008353e-05,
        "meta_mean_motion_dot": 5e-08,
        "meta_mean_motion_ddot": 0,
        "tle_line1": "1 66917U 25285C   25355.59693153  .00000005  00000+0  99008-4 0  9996",
        "tle_line2": "2 66917  50.0026  81.1561 0007495 315.0522  44.9775 14.03663177  2151"
      },
      "geometry": {
        "type": "Point",
        "coordinates": [
          53.92196171748928,
          -27.414483107278784
        ]
      }
    },
    {
      "type": "Feature",
      "properties": {
        "norad_id": 66918,
        "name": "HULIANWANG DIGUI-108",
        "group": "last-30-days",
        "lat": -24.844944890065623,
        "lon": 56.85994909592918,
        "alt_km": 879.8550949122564,
        "timestamp": "2025-12-21T22:41:40.166684+00:00",
        "meta_object_name": "HULIANWANG DIGUI-108",
        "meta_object_id": "2025-285D",
        "meta_epoch": "2025-12-21T14:18:30.790080",
        "meta_mean_motion": 14.0360225,
        "meta_eccentricity": 0.00066288,
        "meta_inclination": 50.0048,
        "meta_ra_of_asc_node": 81.1563,
        "meta_arg_of_pericenter": 309.6374,
        "meta_mean_anomaly": 50.3945,
        "meta_ephemeris_type": 0,
        "meta_classification_type": "U",
        "meta_norad_cat_id": 66918,
        "meta_element_set_no": 999,
        "meta_rev_at_epoch": 215,
        "meta_bstar": 0.00011010072,
        "meta_mean_motion_dot": 2.2e-07,
        "meta_mean_motion_ddot": 0,
        "tle_line1": "1 66918U 25285D   25355.59618970  .00000022  00000+0  11010-3 0  9996",
        "tle_line2": "2 66918  50.0048  81.1563 0006628 309.6374  50.3945 14.03602250  2154"
      },
      "geometry": {
        "type": "Point",
        "coordinates": [
          56.85994909592918,
          -24.844944890065623
        ]
      }
    }
  ]
}